CTC1_L_00166001-01
1 10000U 24767AU  26075.70031250  .00000000  00000+0  00000-0 0  9994
2 10000  85.0000   0.0000 0000000   0.0000   0.0000 13.98210060    17
CTC1_L_00166001-02
1 10001U 26750EI  26075.70031250  .00000000  00000+0  00000-0 0  9999
2 10001  85.0000   0.0000 0000000   0.0000  90.0000 13.98210060    17
CTC1_L_00166001-03
1 10002U 24439HN  26075.70031250  .00000000  00000+0  00000-0 0  9992
2 10002  85.0000   0.0000 0000000   0.0000 180.0000 13.98210060    18
CTC1_L_00166001-04
1 10003U 26743CU  26075.70031250  .00000000  00000+0  00000-0 0  9993
2 10003  85.0000   0.0000 0000000   0.0000 270.0000 13.98210060    19
CTC1_L_00166002-01
1 10004U 22920YU  26075.70031250  .00000000  00000+0  00000-0 0  9997
2 10004  85.0000  12.0000 0000000   0.0000  12.0000 13.98210060    17
CTC1_L_00166002-02
1 10005U 24827KX  26075.70031250  .00000000  00000+0  00000-0 0  9996
2 10005  85.0000  12.0000 0000000   0.0000 102.0000 13.98210060    18
CTC1_L_00166002-03
1 10006U 22865IH  26075.70031250  .00000000  00000+0  00000-0 0  9997
2 10006  85.0000  12.0000 0000000   0.0000 192.0000 13.98210060    18
CTC1_L_00166002-04
1 10007U 25818QY  26075.70031250  .00000000  00000+0  00000-0 0  9999
2 10007  85.0000  12.0000 0000000   0.0000 282.0000 13.98210060    19
CTC1_L_00166003-01
1 10008U 24713EX  26075.70031250  .00000000  00000+0  00000-0 0  9993
2 10008  85.0000  24.0000 0000000   0.0000  24.0000 13.98210060    17
CTC1_L_00166003-02
1 10009U 26955OX  26075.70031250  .00000000  00000+0  00000-0 0  9994
2 10009  85.0000  24.0000 0000000   0.0000 114.0000 13.98210060    18
CTC1_L_00166003-03
1 10010U 22127QK  26075.70031250  .00000000  00000+0  00000-0 0  9993
2 10010  85.0000  24.0000 0000000   0.0000 204.0000 13.98210060    10
CTC1_L_00166003-04
1 10011U 26539BS  26075.70031250  .00000000  00000+0  00000-0 0  9995
2 10011  85.0000  24.0000 0000000   0.0000 294.0000 13.98210060    10
CTC1_L_00166004-01
1 10012U 26417ON  26075.70031250  .00000000  00000+0  00000-0 0  9991
2 10012  85.0000  36.0000 0000000   0.0000  36.0000 13.98210060    18
CTC1_L_00166004-02
1 10013U 24083PC  26075.70031250  .00000000  00000+0  00000-0 0  9999
2 10013  85.0000  36.0000 0000000   0.0000 126.0000 13.98210060    19
CTC1_L_00166004-03
1 10014U 24387NT  26075.70031250  .00000000  00000+0  00000-0 0  9997
2 10014  85.0000  36.0000 0000000   0.0000 216.0000 13.98210060    10
CTC1_L_00166004-04
1 10015U 25650ZM  26075.70031250  .00000000  00000+0  00000-0 0  9992
2 10015  85.0000  36.0000 0000000   0.0000 306.0000 13.98210060    11
CTC1_L_00166005-01
1 10016U 23302FA  26075.70031250  .00000000  00000+0  00000-0 0  9995
2 10016  85.0000  48.0000 0000000   0.0000  48.0000 13.98210060    18
CTC1_L_00166005-02
1 10017U 24736JZ  26075.70031250  .00000000  00000+0  00000-0 0  9998
2 10017  85.0000  48.0000 0000000   0.0000 138.0000 13.98210060    19
CTC1_L_00166005-03
1 10018U 26625TO  26075.70031250  .00000000  00000+0  00000-0 0  9998
2 10018  85.0000  48.0000 0000000   0.0000 228.0000 13.98210060    10
CTC1_L_00166005-04
1 10019U 23142KH  26075.70031250  .00000000  00000+0  00000-0 0  9990
2 10019  85.0000  48.0000 0000000   0.0000 318.0000 13.98210060    11
CTC1_L_00166006-01
1 10020U 25684NL  26075.70031250  .00000000  00000+0  00000-0 0  9995
2 10020  85.0000  60.0000 0000000   0.0000  60.0000 13.98210060    11
CTC1_L_00166006-02
1 10021U 25567DT  26075.70031250  .00000000  00000+0  00000-0 0  9996
2 10021  85.0000  60.0000 0000000   0.0000 150.0000 13.98210060    12
CTC1_L_00166006-03
1 10022U 25740JB  26075.70031250  .00000000  00000+0  00000-0 0  9990
2 10022  85.0000  60.0000 0000000   0.0000 240.0000 13.98210060    13
CTC1_L_00166006-04
1 10023U 26069IV  26075.70031250  .00000000  00000+0  00000-0 0  9996
2 10023  85.0000  60.0000 0000000   0.0000 330.0000 13.98210060    14
CTC1_L_00166007-01
1 10024U 24077BE  26075.70031250  .00000000  00000+0  00000-0 0  9994
2 10024  85.0000  72.0000 0000000   0.0000  72.0000 13.98210060    11
CTC1_L_00166007-02
1 10025U 23667AS  26075.70031250  .00000000  00000+0  00000-0 0  9999
2 10025  85.0000  72.0000 0000000   0.0000 162.0000 13.98210060    12
CTC1_L_00166007-03
1 10026U 23599LP  26075.70031250  .00000000  00000+0  00000-0 0  9994
2 10026  85.0000  72.0000 0000000   0.0000 252.0000 13.98210060    13
CTC1_L_00166007-04
1 10027U 24350GE  26075.70031250  .00000000  00000+0  00000-0 0  9991
2 10027  85.0000  72.0000 0000000   0.0000 342.0000 13.98210060    14
CTC1_L_00166008-01
1 10028U 24618XT  26075.70031250  .00000000  00000+0  00000-0 0  9999
2 10028  85.0000  84.0000 0000000   0.0000  84.0000 13.98210060    11
CTC1_L_00166008-02
1 10029U 22729TT  26075.70031250  .00000000  00000+0  00000-0 0  9991
2 10029  85.0000  84.0000 0000000   0.0000 174.0000 13.98210060    12
CTC1_L_00166008-03
1 10030U 22029JT  26075.70031250  .00000000  00000+0  00000-0 0  9996
2 10030  85.0000  84.0000 0000000   0.0000 264.0000 13.98210060    14
CTC1_L_00166008-04
1 10031U 26288CU  26075.70031250  .00000000  00000+0  00000-0 0  9998
2 10031  85.0000  84.0000 0000000   0.0000 354.0000 13.98210060    15
CTC1_L_00166009-01
1 10032U 22609IK  26075.70031250  .00000000  00000+0  00000-0 0  9992
2 10032  85.0000  96.0000 0000000   0.0000  96.0000 13.98210060    12
CTC1_L_00166009-02
1 10033U 23504FL  26075.70031250  .00000000  00000+0  00000-0 0  9998
2 10033  85.0000  96.0000 0000000   0.0000 186.0000 13.98210060    13
CTC1_L_00166009-03
1 10034U 24241NK  26075.70031250  .00000000  00000+0  00000-0 0  9998
2 10034  85.0000  96.0000 0000000   0.0000 276.0000 13.98210060    14
CTC1_L_00166009-04
1 10035U 26099SA  26075.70031250  .00000000  00000+0  00000-0 0  9992
2 10035  85.0000  96.0000 0000000   0.0000   6.0000 13.98210060    16
CTC1_L_00166010-01
1 10036U 23392BZ  26075.70031250  .00000000  00000+0  00000-0 0  9996
2 10036  85.0000 108.0000 0000000   0.0000 108.0000 13.98210060    14
CTC1_L_00166010-02
1 10037U 26377WH  26075.70031250  .00000000  00000+0  00000-0 0  9993
2 10037  85.0000 108.0000 0000000   0.0000 198.0000 13.98210060    14
CTC1_L_00166010-03
1 10038U 25188QY  26075.70031250  .00000000  00000+0  00000-0 0  9993
2 10038  85.0000 108.0000 0000000   0.0000 288.0000 13.98210060    15
CTC1_L_00166010-04
1 10039U 26757RG  26075.70031250  .00000000  00000+0  00000-0 0  9997
2 10039  85.0000 108.0000 0000000   0.0000  18.0000 13.98210060    17
CTC1_L_00166011-01
1 10040U 23874PY  26075.70031250  .00000000  00000+0  00000-0 0  9996
2 10040  85.0000 120.0000 0000000   0.0000 120.0000 13.98210060    17
CTC1_L_00166011-02
1 10041U 24908VT  26075.70031250  .00000000  00000+0  00000-0 0  9996
2 10041  85.0000 120.0000 0000000   0.0000 210.0000 13.98210060    18
CTC1_L_00166011-03
1 10042U 25718N   26075.70031250  .00000000  00000+0  00000-0 0  9997
2 10042  85.0000 120.0000 0000000   0.0000 300.0000 13.98210060    19
CTC1_L_00166011-04
1 10043U 26511YF  26075.70031250  .00000000  00000+0  00000-0 0  9990
2 10043  85.0000 120.0000 0000000   0.0000  30.0000 13.98210060    10
CTC1_L_00166012-01
1 10044U 24319XR  26075.70031250  .00000000  00000+0  00000-0 0  9995
2 10044  85.0000 132.0000 0000000   0.0000 132.0000 13.98210060    17
CTC1_L_00166012-02
1 10045U 22669WV  26075.70031250  .00000000  00000+0  00000-0 0  9992
2 10045  85.0000 132.0000 0000000   0.0000 222.0000 13.98210060    18
CTC1_L_00166012-03
1 10046U 25574XI  26075.70031250  .00000000  00000+0  00000-0 0  9991
2 10046  85.0000 132.0000 0000000   0.0000 312.0000 13.98210060    19
CTC1_L_00166012-04
1 10047U 26530TX  26075.70031250  .00000000  00000+0  00000-0 0  9995
2 10047  85.0000 132.0000 0000000   0.0000  42.0000 13.98210060    10
CTC1_L_00166013-01
1 10048U 25944FL  26075.70031250  .00000000  00000+0  00000-0 0  9994
2 10048  85.0000 144.0000 0000000   0.0000 144.0000 13.98210060    17
CTC1_L_00166013-02
1 10049U 24934CB  26075.70031250  .00000000  00000+0  00000-0 0  9993
2 10049  85.0000 144.0000 0000000   0.0000 234.0000 13.98210060    18
CTC1_L_00166013-03
1 10050U 25434VA  26075.70031250  .00000000  00000+0  00000-0 0  9991
2 10050  85.0000 144.0000 0000000   0.0000 324.0000 13.98210060    10
CTC1_L_00166013-04
1 10051U 26039SH  26075.70031250  .00000000  00000+0  00000-0 0  9994
2 10051  85.0000 144.0000 0000000   0.0000  54.0000 13.98210060    11
CTC1_L_00166014-01
1 10052U 22021FO  26075.70031250  .00000000  00000+0  00000-0 0  9992
2 10052  85.0000 156.0000 0000000   0.0000 156.0000 13.98210060    18
CTC1_L_00166014-02
1 10053U 24406FK  26075.70031250  .00000000  00000+0  00000-0 0  9992
2 10053  85.0000 156.0000 0000000   0.0000 246.0000 13.98210060    19
CTC1_L_00166014-03
1 10054U 22863JY  26075.70031250  .00000000  00000+0  00000-0 0  9998
2 10054  85.0000 156.0000 0000000   0.0000 336.0000 13.98210060    10
CTC1_L_00166014-04
1 10055U 23806MI  26075.70031250  .00000000  00000+0  00000-0 0  9997
2 10055  85.0000 156.0000 0000000   0.0000  66.0000 13.98210060    11
CTC1_L_00166015-01
1 10056U 23218PN  26075.70031250  .00000000  00000+0  00000-0 0  9995
2 10056  85.0000 168.0000 0000000   0.0000 168.0000 13.98210060    18
CTC1_L_00166015-02
1 10057U 25136BO  26075.70031250  .00000000  00000+0  00000-0 0  9997
2 10057  85.0000 168.0000 0000000   0.0000 258.0000 13.98210060    19
CTC1_L_00166015-03
1 10058U 23922JB  26075.70031250  .00000000  00000+0  00000-0 0  9999
2 10058  85.0000 168.0000 0000000   0.0000 348.0000 13.98210060    10
CTC1_L_00166015-04
1 10059U 25363VW  26075.70031250  .00000000  00000+0  00000-0 0  9991
2 10059  85.0000 168.0000 0000000   0.0000  78.0000 13.98210060    11
CTC1_L_00166016-01
1 10060U 25328BR  26075.70031250  .00000000  00000+0  00000-0 0  9994
2 10060  85.0000 180.0000 0000000   0.0000 180.0000 13.98210060    11
CTC1_L_00166016-02
1 10061U 25516OB  26075.70031250  .00000000  00000+0  00000-0 0  9994
2 10061  85.0000 180.0000 0000000   0.0000 270.0000 13.98210060    12
